0 COSMOS 340
1 04387U 70036E   24028.95300417 -.00000014  00000-0  13359-4 0  9994
2 04387  74.0310   2.7197 0039068 134.6162 281.8299 12.56311524465097
0 COSMOS 341
1 04388U 70036F   24028.97235119  .00000014  00000-0  16353-3 0  9998
2 04388  74.0318 326.5664 0080466  35.7643  34.7003 12.64324480480937
0 COSMOS 342
1 04389U 70036G   24028.70576187  .00000013  00000-0  15119-3 0  9991
2 04389  74.0291 127.8817 0101057 167.0155 307.7762 12.68310351488756
0 COSMOS 343
1 04390U 70036H   24028.81735118 -.00000021  00000-0 -26689-4 0  9992
2 04390  74.0283 159.6986 0060551 253.0320 261.9732 12.60435727473425
0 SL-8 R/B
1 04391U 70036J   24028.93184740  .00000023  00000-0  30529-3 0  9992
2 04391  74.0310 308.1933 0075572  20.4986  49.3433 12.34971545423596
0 SL-3 R/B
1 04394U 70037B   24028.91096552  .00030693  00000-0  48452-3 0  9997
2 04394  81.2312  37.4016 0025865  97.5851 262.8337 15.52953333935389
0 METEOR 1-5
1  4419U 70047A   24029.03405749  .00000201  00000-0  95248-4 0  9990
2  4419  81.2174  13.7537 0040002  20.7958 339.4832 14.15776197765598
0 SL-3 R/B
1 04420U 70047B   24028.78937131  .00000197  00000-0  96846-4 0  9997
2 04420  81.2318 129.0019 0086473 221.9914 137.4608 14.12298828759143
0 COSMOS 252 DEB *
1 04421U 68097CF  24028.68609766  .00004553  00000-0  72414-3 0  9993
2 04421  62.7333 139.9286 0728860  50.4998 315.8200 13.70648761439122
0 THORAD AGENA D DEB
1 04432U 69082ED  24028.61629389  .00001077  00000-0  44583-3 0  9990
2 04432  69.9779 108.2013 0057004 251.4497 108.0427 14.28388852810667
0 THORAD AGENA D DEB
1 04435U 69082EG  24028.84249268  .00007852  00000-0  13473-2 0  9992
2 04435  70.0222 303.0642 0014876 102.3862 257.8948 14.68963180838229
0 THORAD AGENA D DEB
1 04438U 69082EK  24028.42528157  .00003009  00000-0  64030-3 0  9992
2 04438  70.1011 145.5670 0053096 353.4160   6.6275 14.59106197847305
0 THORAD AGENA D DEB
1 04449U 69082EU  24028.89741414  .00002046  00000-0  65483-3 0  9991
2 04449  69.9766 313.8009 0054475 159.0855 201.2520 14.40095627814865
0 THORAD AGENA D DEB
1 04451U 69082EW  24028.84685737  .00002661  00000-0  70891-3 0  9996
2 04451  70.0372 293.1204 0039416 265.6054  94.0576 14.49087572829284
0 THORAD AGENA D DEB
1 04453U 69082EY  24028.73235560 -.00000017  00000-0  20586-4 0  9992
2 04453  70.1308 268.4543 0036148 238.0335 121.7263 14.10423133785683
0 THORAD AGENA D DEB
1 04468U 69082FM  24028.66593112  .00000387  00000-0  37363-3 0  9999
2 04468  70.0737 130.2201 0089517 289.7301  69.4161 13.85307051735237
0 INTELSAT 3-F8
1 04478U 70055A   24028.74182075 -.00000115  00000-0  00000-0 0  9998
2 04478   3.3116  78.0500 0315187  89.2423  90.4796  1.02265339113924
0 DELTA 1 DEB
1  4499U 68069G   24028.57726862 -.00000031  00000-0  76637-4 0  9992
2  4499 101.4324  67.5698 0028014 254.2391 260.5622 12.51263261534773
0 NNSS 19 (TRANSIT 19)
1 04507U 70067A   24028.59044928  .00000184  00000-0  24380-3 0  9996
2 04507  89.9549 235.7825 0173987 114.9345 246.9997 13.51006597629837
0 OPS 7329
1 04510U 70069A   24028.76235813 -.00000261  00000-0  00000-0 0  9993
2 04510  10.3169 184.3238 0999634  74.2405 103.5087  1.00324587 16060
0 ATLAS AGENA D R/B
1 04511U 70046B   24028.41337090 -.00000207  00000-0  00000-0 0  9991
2 04511   0.5621 268.7431 0030551 108.5974 342.7329  1.00448611 16806
0 OPS 0203 (DMSP 5A F2)
1 04512U 70070A   24028.71955325  .00000429  00000-0  16180-3 0  9993
2 04512  98.8316 303.7784 0064642 129.5371 231.1551 14.35349483786699
0 THOR BURNER 2 R/B
1 04513U 70070B   24028.81831431  .00000506  00000-0  19428-3 0  9990
2 04513  98.8665 322.2735 0065797 261.1083  98.2648 14.33729806784780
0 SCOUT A R/B
1  4515U 70067B   24028.55559875  .00000115  00000-0  15280-3 0  9996
2  4515  89.9554 235.2399 0173493 201.0501 213.0502 13.49407133628437
0 THORAD AGENA D DEB
1 04519U 69082FW  24028.81626085  .07977711  41770-5  54053-2 0  9998
2 04519  69.9776 175.4272 0011763 330.2831  29.7718 16.16348195855142
0 THORAD AGENA D DEB
1 04547U 69082GN  24028.39777817  .00002147  00000-0  82654-3 0  9992
2 04547  69.9913  14.4313 0038350 323.1218  36.7269 14.31254763807211
0 SCOUT A DEB
1 04555U 66041F   24028.51313923  .00003213  00000-0  93565-3 0  9999
2 04555  90.1873  53.8237 0045916 193.0476 166.9544 14.43460483297877
0 COSMOS 367
1 04564U 70079A   24028.76960835 -.00000042  00000-0  42063-4 0  9998
2 04564  65.2780 109.1894 0052977  35.7184 324.7400 13.78491617683137
0 COSMOS 371
1 04578U 70083A   24028.45961227  .00000581  00000-0  14259-3 0  9992
2 04578  73.9984  26.6208 0003712 239.6178 120.4618 14.54637129818921
0 SL-8 R/B
1 04579U 70083B   24028.78691355  .00001121  00000-0  23143-3 0  9994
2 04579  74.0027 146.5775 0011474 286.3379  73.6525 14.61627211827531
0 COSMOS 372
1  4588U 70086A   24029.16600222  .00000291  00000-0  10833-3 0  9992
2  4588  74.0566  11.5530 0013407 347.7259  96.7167 14.36366534788406
0 SL-8 R/B
1 04589U 70086B   24028.85805899  .00000645  00000-0  20303-3 0  9991
2 04589  74.0602 167.0901 0019596 134.6572 225.6186 14.42261640794997
0 COSMOS 374
1 04594U 70089A   24028.62134789  .00000404  00000-0  23057-3 0  9990
2 04594  62.9500  83.5089 0923632 341.9907  15.0275 12.95467793556062
0 SL-11 R/B
1  4597U 70089B   24028.97175371  .00000034  00000-0  58873-4 0  9997
2  4597  62.9501 232.3100 0938878 344.3642  13.0078 12.95010363647343
0 COSMOS 375
1 04598U 70091A   24028.90866610  .00000373  00000-0  14986-3 0  9999
2 04598  62.8085 292.6533 0993076  88.0137 283.4109 12.96621709515694
0 THORAD AGENA D DEB
1 04603U 70025F   24028.81238620  .00002448  00000-0  22578-2 0  9997
2 04603  99.5182 110.8641 0020410  44.4042  79.7515 13.83524913672249
0 THORAD AGENA D DEB
1  4607U 70025K   24029.13567394  .00000173  00000-0  91422-3 0  9998
2  4607 100.1816  76.0068 0614307  93.9399 337.9988 12.30779637414658
0 THORAD AGENA D DEB
1  4611U 70025P   24028.93909036  .00000661  00000-0  43490-3 0  9997
2  4611  99.7989 312.1652 0126157 299.2285  59.6310 14.02146708734083
0 THORAD AGENA D DEB
1 04612U 70025Q   24028.58073299  .00001674  00000-0  11152-2 0  9996
2 04612  99.7371 242.4668 0084046 171.9182 188.3357 14.01034456722873
0 THORAD AGENA D DEB
1  4613U 70025R   24028.60617630  .00002726  00000-0  12593-2 0  9992
2  4613  98.6691  70.0177 0100732 174.1853 186.0518 14.19074071737694
0 THORAD AGENA D DEB
1 04614U 70025S   24028.77987205  .00001103  00000-0  91539-3 0  9995
2 04614 100.0585 326.2579 0079704 236.3205 123.0331 13.89807788705518
0 THORAD AGENA D DEB
1 04615U 70025T   24028.77645251  .00000392  00000-0  47987-3 0  9995
2 04615 100.1403  98.7269 0060920 163.7712 311.9186 13.71908988683248
0 COSMOS 374 DEB
1 04616U 70089C   24028.60143488  .00000693  00000-0  57674-3 0  9991
2 04616  62.8082  98.9936 0949744 351.7181   6.9026 12.71235865433285
0 COSMOS 374 DEB
1 04617U 70089D   24028.65953881  .00012181  00000-0  24390-2 0  9996
2 04617  62.9449 138.6638 0355141 218.7389 138.7722 14.29073625642940
0 COSMOS 374 DEB
1  4621U 70089H   24029.15302498  .00002491  00000-0  66087-3 0  9992
2  4621  62.9150 338.2107 0740615 121.1776 246.4021 13.51799047563874
0 COSMOS 375 DEB
1  4628U 70091H   24029.14534131  .00008901  00000-0  11428-2 0  9992
2  4628  62.7519  43.5359 0454513  92.0012 273.3150 14.28983403638052
0 COSMOS 375 DEB
1 04629U 70091J   24028.93609270  .00000622  00000-0  29409-3 0  9997
2 04629  62.8582 283.2859 0915387 333.0419  22.5676 13.01618961516474
0 OPS 5960
1 04630U 70093A   24028.67122140 -.00000137  00000-0  00000-0 0  9993
2 04630  13.7255  52.3375 1386694 240.6347 318.4416  1.20217232233371
0 TITAN 3C TRANSTAGE R/B
1 04632U 70093B   24028.85604950 -.00000136  00000-0  00000-0 0  9998
2 04632  13.7330  51.9962 1392550 240.7531 189.0843  1.20232070131941
0 COSMOS 375 DEB
1 04634U 70091L   24028.66077326  .00003679  00000-0  91690-3 0  9990
2 04634  62.8064 113.1737 0520582 325.6905  31.1503 13.93977046622361
0 COSMOS 375 DEB
1 04635U 70091M   24028.70022052  .00000344  00000-0  14171-3 0  9997
2 04635  62.8078 129.7691 0952443 119.2204 250.7446 13.04414841528128
0 THORAD AGENA D DEB
1  4636U 70025U   24028.87225444  .00000370  00000-0  48014-3 0  9995
2  4636  99.9718 340.6787 0033120 176.5262 247.4887 13.69119448676462
0 THORAD AGENA D DEB
1  4637U 70025V   24029.00636080  .00000215  00000-0  32690-3 0  9995
2  4637  99.9702  35.3114 0023695   4.3936  56.4263 13.64287608669355
0 THORAD AGENA D DEB
1 04639U 70025X   24028.79555987  .00000152  00000-0  38691-3 0  9995
2 04639  99.9625 113.5174 0113163 356.3422 119.1371 13.32769102613317
0 THORAD AGENA D DEB
1 04640U 70025Y   24028.87955389  .00000616  00000-0  11970-2 0  9991
2 04640  99.9681 151.8682 0121931 247.5614 237.4909 13.38121001615630
0 THORAD AGENA D DEB
1  4643U 70025AB  24029.13909986  .00000222  00000-0  38581-3 0  9997
2  4643  99.5009 264.7909 0010176 257.1948 233.8616 13.54744732654430
0 THORAD AGENA D DEB
1 04644U 70025AC  24028.67562983  .00000370  00000-0  55816-3 0  9992
2 04644  99.6280 289.2304 0014782 346.9520  68.4461 13.59588882658840
0 THORAD AGENA D DEB
1 04645U 70025AD  24028.61276803  .00000122  00000-0  51138-3 0  9998
2 04645  99.9053 162.1084 0328104   5.6731  57.2976 12.86304816523485
0 THORAD AGENA D DEB
1 04649U 70025AH  24028.94748717  .00025727  00000-0  20896-2 0  9990
2 04649  99.8575 169.1651 0052908  85.6854 275.0404 14.98501961797747
0 THORAD AGENA D DEB
1  4650U 70025AJ  24028.61061504  .00001423  00000-0  81546-3 0  9995
2  4650  99.8799  64.3306 0117556 311.8385  47.2791 14.07940888735435
0 THORAD AGENA D DEB
1  4651U 70025AK  24028.55380609  .00001971  00000-0  13826-2 0  9992
2  4651 100.1574 235.5007 0049461 248.1205 111.4691 13.99155302714243
0 THORAD AGENA D DEB
1 04652U 70025AL  24028.86563883  .00001481  00000-0  12898-2 0  9998
2 04652  99.5348 148.2799 0030785  22.1700 103.1994 13.87471423696370
0 THORAD AGENA D DEB
1 04653U 70025AM  24028.91099364  .00009980  00000-0  32345-2 0  9994
2 04653 100.0035 165.6159 0022419 297.1138  62.7758 14.39047130740751
